{
  "type": "FeatureCollection",
  "features": [
    {
      "type": "Feature",
      "properties": {
        "norad_id": 31322,
        "name": "FENGYUN 1C DEB",
        "group": "fengyun-1c-debris",
        "lat": 36.19131514380688,
        "lon": 36.03405390555593,
        "alt_km": 810.266522462086,
        "timestamp": "2025-12-03T15:48:03.352354+00:00",
        "meta_object_name": "FENGYUN 1C DEB",
        "meta_object_id": "1999-025BQA",
        "meta_epoch": "2025-12-02T09:57:05.346144",
        "meta_mean_motion": 13.72990391,
        "meta_eccentricity": 0.0239007,
        "meta_inclination": 98.5749,
        "meta_ra_of_asc_node": 41.2566,
        "meta_arg_of_pericenter": 37.8458,
        "meta_mean_anomaly": 334.6813,
        "meta_ephemeris_type": 0,
        "meta_classification_type": "U",
        "meta_norad_cat_id": 31322,
        "meta_element_set_no": 999,
        "meta_rev_at_epoch": 62134,
        "meta_bstar": 0.00025402374,
        "meta_mean_motion_dot": 2.51e-06,
        "meta_mean_motion_ddot": 0,
        "tle_line1": "1 31322U 99025BQA 25336.41464521  .00000251  00000+0  25402-3 0  9995",
        "tle_line2": "2 31322  98.5749  41.2566 0239007  37.8458 334.6813 13.72990391621343"
      },
      "geometry": {
        "type": "Point",
        "coordinates": [
          36.03405390555593,
          36.19131514380688
        ]
      }
    },
    {
      "type": "Feature",
      "properties": {
        "norad_id": 31323,
        "name": "FENGYUN 1C DEB",
        "group": "fengyun-1c-debris",
        "lat": -28.01122182048609,
        "lon": 20.496325695572907,
        "alt_km": 821.6789018994496,
        "timestamp": "2025-12-03T15:48:03.352363+00:00",
        "meta_object_name": "FENGYUN 1C DEB",
        "meta_object_id": "1999-025BQB",
        "meta_epoch": "2025-12-02T07:58:19.286688",
        "meta_mean_motion": 14.274728,
        "meta_eccentricity": 0.00318958,
        "meta_inclination": 99.422,
        "meta_ra_of_asc_node": 14.0004,
        "meta_arg_of_pericenter": 109.182,
        "meta_mean_anomaly": 251.2815,
        "meta_ephemeris_type": 0,
        "meta_classification_type": "U",
        "meta_norad_cat_id": 31323,
        "meta_element_set_no": 999,
        "meta_rev_at_epoch": 63832,
        "meta_bstar": 0.0018110627,
        "meta_mean_motion_dot": 4.423e-05,
        "meta_mean_motion_ddot": 0,
        "tle_line1": "1 31323U 99025BQB 25336.33216767  .00004423  00000+0  18111-2 0  9997",
        "tle_line2": "2 31323  99.4220  14.0004 0031895 109.1820 251.2815 14.27472800638327"
      },
      "geometry": {
        "type": "Point",
        "coordinates": [
          20.496325695572907,
          -28.01122182048609
        ]
      }
    },
    {
      "type": "Feature",
      "properties": {
        "norad_id": 31324,
        "name": "FENGYUN 1C DEB",
        "group": "fengyun-1c-debris",
        "lat": 38.19164871554235,
        "lon": 86.19726828619557,
        "alt_km": 875.988599426435,
        "timestamp": "2025-12-03T15:48:03.352372+00:00",
        "meta_object_name": "FENGYUN 1C DEB",
        "meta_object_id": "1999-025BQC",
        "meta_epoch": "2025-12-01T12:12:44.247744",
        "meta_mean_motion": 14.14680998,
        "meta_eccentricity": 0.0049762,
        "meta_inclination": 99.122,
        "meta_ra_of_asc_node": 256.7405,
        "meta_arg_of_pericenter": 336.2321,
        "meta_mean_anomaly": 23.6554,
        "meta_ephemeris_type": 0,
        "meta_classification_type": "U",
        "meta_norad_cat_id": 31324,
        "meta_element_set_no": 999,
        "meta_rev_at_epoch": 96327,
        "meta_bstar": 0.00020764427,
        "meta_mean_motion_dot": 3.57e-06,
        "meta_mean_motion_ddot": 0,
        "tle_line1": "1 31324U 99025BQC 25335.50884546  .00000357  00000+0  20764-3 0  9992",
        "tle_line2": "2 31324  99.1220 256.7405 0049762 336.2321  23.6554 14.14680998963277"
      },
      "geometry": {
        "type": "Point",
        "coordinates": [
          86.19726828619557,
          38.19164871554235
        ]
      }
    },
    {
      "type": "Feature",
      "properties": {
        "norad_id": 31325,
        "name": "FENGYUN 1C DEB",
        "group": "fengyun-1c-debris",
        "lat": -16.472920988731495,
        "lon": 74.39893800266364,
        "alt_km": 847.5332745924488,
        "timestamp": "2025-12-03T15:48:03.352381+00:00",
        "meta_object_name": "FENGYUN 1C DEB",
        "meta_object_id": "1999-025BQD",
        "meta_epoch": "2025-11-24T23:23:39.646752",
        "meta_mean_motion": 14.16672096,
        "meta_eccentricity": 0.00707168,
        "meta_inclination": 98.9917,
        "meta_ra_of_asc_node": 62.9425,
        "meta_arg_of_pericenter": 270.4358,
        "meta_mean_anomaly": 88.8713,
        "meta_ephemeris_type": 0,
        "meta_classification_type": "U",
        "meta_norad_cat_id": 31325,
        "meta_element_set_no": 999,
        "meta_rev_at_epoch": 59526,
        "meta_bstar": 0.0025582335,
        "meta_mean_motion_dot": 5.193e-05,
        "meta_mean_motion_ddot": 0,
        "tle_line1": "1 31325U 99025BQD 25328.97476443  .00005193  00000+0  25582-2 0  9994",
        "tle_line2": "2 31325  98.9917  62.9425 0070716 270.4358  88.8713 14.16672096595261"
      },
      "geometry": {
        "type": "Point",
        "coordinates": [
          74.39893800266364,
          -16.472920988731495
        ]
      }
    },
    {
      "type": "Feature",
      "properties": {
        "norad_id": 31327,
        "name": "FENGYUN 1C DEB",
        "group": "fengyun-1c-debris",
        "lat": -76.28894688898946,
        "lon": 17.904568760930452,
        "alt_km": 572.5462937774009,
        "timestamp": "2025-12-03T15:48:03.352390+00:00",
        "meta_object_name": "FENGYUN 1C DEB",
        "meta_object_id": "1999-025BQF",
        "meta_epoch": "2025-12-02T05:09:54.181152",
        "meta_mean_motion": 15.09995749,
        "meta_eccentricity": 0.0089281,
        "meta_inclination": 98.9847,
        "meta_ra_of_asc_node": 335.7853,
        "meta_arg_of_pericenter": 44.0162,
        "meta_mean_anomaly": 316.8127,
        "meta_ephemeris_type": 0,
        "meta_classification_type": "U",
        "meta_norad_cat_id": 31327,
        "meta_element_set_no": 999,
        "meta_rev_at_epoch": 99941,
        "meta_bstar": 0.0018104,
        "meta_mean_motion_dot": 0.00032362,
        "meta_mean_motion_ddot": 0,
        "tle_line1": "1 31327U 99025BQF 25336.21521043  .00032362  00000+0  18104-2 0  9999",
        "tle_line2": "2 31327  98.9847 335.7853 0089281  44.0162 316.8127 15.09995749999410"
      },
      "geometry": {
        "type": "Point",
        "coordinates": [
          17.904568760930452,
          -76.28894688898946
        ]
      }
    },
    {
      "type": "Feature",
      "properties": {
        "norad_id": 31328,
        "name": "FENGYUN 1C DEB",
        "group": "fengyun-1c-debris",
        "lat": -50.257429537306955,
        "lon": 121.33123557282543,
        "alt_km": 729.791701884038,
        "timestamp": "2025-12-03T15:48:03.352399+00:00",
        "meta_object_name": "FENGYUN 1C DEB",
        "meta_object_id": "1999-025BQG",
        "meta_epoch": "2025-12-03T04:38:02.452416",
        "meta_mean_motion": 14.2893748,
        "meta_eccentricity": 0.01032554,
        "meta_inclination": 98.4821,
        "meta_ra_of_asc_node": 311.2177,
        "meta_arg_of_pericenter": 244.7927,
        "meta_mean_anomaly": 114.2522,
        "meta_ephemeris_type": 0,
        "meta_classification_type": "U",
        "meta_norad_cat_id": 31328,
        "meta_element_set_no": 999,
        "meta_rev_at_epoch": 97326,
        "meta_bstar": 0.00011830757,
        "meta_mean_motion_dot": 2.73e-06,
        "meta_mean_motion_ddot": 0,
        "tle_line1": "1 31328U 99025BQG 25337.19308394  .00000273  00000+0  11831-3 0  9997",
        "tle_line2": "2 31328  98.4821 311.2177 0103255 244.7927 114.2522 14.28937480973264"
      },
      "geometry": {
        "type": "Point",
        "coordinates": [
          121.33123557282543,
          -50.257429537306955
        ]
      }
    },
    {
      "type": "Feature",
      "properties": {
        "norad_id": 31330,
        "name": "FENGYUN 1C DEB",
        "group": "fengyun-1c-debris",
        "lat": -80.66491619780206,
        "lon": -147.20773357719193,
        "alt_km": 548.7785173868488,
        "timestamp": "2025-12-03T15:48:03.352408+00:00",
        "meta_object_name": "FENGYUN 1C DEB",
        "meta_object_id": "1999-025BQJ",
        "meta_epoch": "2025-12-03T03:43:09.707808",
        "meta_mean_motion": 15.06209652,
        "meta_eccentricity": 0.00104857,
        "meta_inclination": 98.8852,
        "meta_ra_of_asc_node": 140.1,
        "meta_arg_of_pericenter": 236.9268,
        "meta_mean_anomaly": 187.7446,
        "meta_ephemeris_type": 0,
        "meta_classification_type": "U",
        "meta_norad_cat_id": 31330,
        "meta_element_set_no": 999,
        "meta_rev_at_epoch": 96985,
        "meta_bstar": 0.012483492,
        "meta_mean_motion_dot": 0.00187901,
        "meta_mean_motion_ddot": 0,
        "tle_line1": "1 31330U 99025BQJ 25337.15497347  .00187901  00000+0  12483-1 0  9999",
        "tle_line2": "2 31330  98.8852 140.1000 0010485 236.9268 187.7446 15.06209652969852"
      },
      "geometry": {
        "type": "Point",
        "coordinates": [
          -147.20773357719193,
          -80.66491619780206
        ]
      }
    }
  ]
}